#cP2011 10 10  0  0  0.00000000      96 d+D   IGS08 FIT AIUB
## 1657  86400.00000000   900.00000000 55844 0.0000000000000
+   54   G01G02G03G04G05G06G07G08G09G10G11G12G13G14G15G16G17
+        G18G19G20G21G22G23G25G26G27G28G29G30G31G32R01R02R03
+        R04R05R06R07R08R09R10R11R12R13R15R16R17R18R19R20R21
+        R22R23R24  0  0  0  0  0  0  0  0  0  0  0  0  0  0
+          0  0  0  0  0  0  0  0  0  0  0  0  0  0  0  0  0
++         6  6  4  6  4  4  5  6  5  4  4  4  4  4  4  4  4
++         4  4  4  6  4  4  4  4  6  4  4  4  5  4  5  4  6
++        10  4  4  4  4  6  6  6  6  6  5  6  5  4  4  5  4
++         4  4  5  0  0  0  0  0  0  0  0  0  0  0  0  0  0
++         0  0  0  0  0  0  0  0  0  0  0  0  0  0  0  0  0
%c M  cc GPS ccc cccc cccc cccc cccc ccccc ccccc ccccc ccccc
%c cc cc ccc ccc cccc cccc cccc cccc ccccc ccccc ccccc ccccc
%f  1.2500000  1.025000000  0.00000000000  0.000000000000000
%f  0.0000000  0.000000000  0.00000000000  0.000000000000000
%i    0    0    0    0      0      0      0      0         0
%i    0    0    0    0      0      0      0      0         0
/* Center for Orbit Determination in Europe (CODE)          
/* Final GNSS orbits and GPS clocks for year-day 11283      
/* Note: Middle day of a 3-day arc GPS/GLONASS solution     
/* PCV:IGS08      OL/AL:FES2004  NONE     YN ORB:CoN CLK:CoN
*  2011 10 10 11  0  0.00000000
PG01 -12691.301097 -13334.664153 -19158.281749     14.155128
PG02 -11479.165167  14192.698891  19196.723977    360.138129
PG03   9923.109711 -24460.312775   -423.928959    779.407732
PG04 -24080.266028   6684.038291   9251.357879    256.219369
PG05  -2012.986021  20422.241210  16785.698660   -229.761121
PG06  14328.253388 -21896.817503   3805.818314    -52.404909
PG07 -24330.248872  -6397.514957   8905.243677     31.010974
PG08 -26796.468290  -1831.036179  -1046.198870      0.020884
PG09   8393.830469  14124.025164 -21412.965870    110.809843
PG10 -15302.546598   3740.688759  21197.056790    -15.783519
PG11  -6622.495251 -15697.431944 -20751.336374   -193.460293
PG12  11788.937942  23848.594417  -1646.143989     27.610557
PG13 -11620.758996  -8773.932633  22078.098627    247.365656
PG14  19052.366084 -10734.716411 -14792.553133    176.159307
PG15  -1106.615522  22516.019765 -13891.444382   -103.103517
PG16   1573.524731 -20739.028746  16354.319903   -202.541851
PG17 -18962.763338  10595.155067 -14973.488014    171.365062
PG18  18778.215562  12654.626228 -13828.873834    161.435412
PG19   5344.088741 -22702.105071 -12388.861333   -192.744374
PG20 -13512.081685 -22893.155380   -983.127600     54.166314
PG21  25945.773064   4579.559850   5767.410455   -176.958708
PG22  16410.626013  -2103.091908 -20615.725313    144.062671
PG23  -5628.391543 -17021.109834  19500.080730    269.114623
PG25  17482.930041  18111.000950   8487.085730     22.678368
PG26 -11700.241415  23108.883314  -5419.332454   -185.687806
PG27   2023.726516  14370.919694 -21614.830793    313.692820
PG28 -16647.961897  -2675.253007 -20061.032378     74.377650
PG29  12223.988461   9113.692018  21813.192421    247.142509
PG30  18590.763260   3940.746101  18198.648810     71.692782
PG31  21832.208491  -8350.652560  13017.415602    153.371152
PG32  -5938.514102 -25031.532440  -7204.483989   -343.056524
PR01  -7241.784624 -24388.531932  -1961.160324 999999.999999
PR02 -13099.810387 -15699.814839  15269.051888 999999.999999
PR03 -24109.486177   -754.700312  -8453.204281 999999.999999
PR04  17747.098775  -8777.138922  16093.169697 999999.999999
PR05   7196.898956  24381.668421   2082.387882 999999.999999
PR06  12953.249244  16339.059535 -14725.579360 999999.999999
PR07  10843.808759  -3650.176499 -22803.757162 999999.999999
PR08   2761.753478 -18272.213321 -17574.570690 999999.999999
PR09  22548.135962   8731.110150  -8276.567311 999999.999999
PR10  24000.471801    754.811697   8450.342624 999999.999999
PR11  11737.248644  -7647.476601  21333.026459 999999.999999
PR12  -8230.198923 -11791.558720  21087.517926 999999.999999
PR13 -22546.215133  -8347.307553   8540.207021 999999.999999
PR15  -9126.420102   8429.130094 -22255.396839 999999.999999
PR16   8087.168839  11783.114740 -21133.843267 999999.999999
PR17 -18633.135470  11266.090005 -13354.189517 999999.999999
PR18 -15320.277910  20105.874047   3844.907331 999999.999999
PR19  -3520.617492  17031.336710  18651.861420 999999.999999
PR20  10919.639069   3779.288351  22733.831024 999999.999999
PR21  18466.195324 -11222.927867  13624.830694 999999.999999
PR22  15363.191696 -19972.035241  -3429.679555 999999.999999
PR23   3277.501157 -17087.239914 -18668.738256 999999.999999
PR24 -10510.940034  -4347.173467 -22858.496105 999999.999999
*  2011 10 10 11 15  0.00000000
PG01 -10438.803781 -13525.074966 -20348.237925     14.184758
PG02 -13608.977202  14108.716370  17765.254244    360.139518
PG03  10210.842205 -24178.183682   2381.936247    779.412871
PG04 -25020.436324   6435.540341   6660.808321    256.229627
PG05  -3220.925194  18790.357963  18432.332483   -229.765900
PG06  14381.363923 -21227.346097   6542.245660    -52.397962
PG07 -23179.646231  -6590.311701  11449.879531     31.012595
PG08 -26750.305777  -1934.436766   1845.301173      0.019525
PG09   6028.935413  14270.778778 -22120.982861    110.810878
PG10 -16496.141823   1615.127502  20602.381801    -15.783815
PG11  -4381.874647 -16362.429661 -20801.786493   -193.463515
PG12  11443.142520  23646.509053  -4495.051150     27.612813
PG13 -10215.454346 -10883.609844  21826.810471    247.363537
PG14  18211.072388  -9093.004464 -16805.517790    176.160911
PG15  -1997.802855  23709.712424 -11604.499818   -103.102834
PG16   2674.163896 -19088.212981  18151.303441   -202.543583
PG17 -18192.442292   8894.661619 -16913.934454    171.363184
PG18  19329.066881  14071.029293 -11608.543070    161.437042
PG19   6255.417176 -23641.185343  -9926.512665   -192.748037
PG20 -13096.169016 -22864.360818  -3759.318728     54.166579
PG21  25203.108399   4861.839205   8376.549831   -176.960674
PG22  17529.511416    -25.512446 -19802.905389    144.062442
PG23  -4456.806137 -18835.399569  18048.413684    269.111961
PG25  17729.537321  18924.033663   5781.106436     22.679975
PG26 -12086.143574  23326.062445  -2538.677010   -185.699334
PG27   -577.460174  14538.858647 -21557.152024    313.695074
PG28 -17694.684516  -4744.232335 -18797.329019     74.380394
PG29  10946.086746  11220.957700  21510.247846    247.145308
PG30  19708.027064   5671.012416  16523.236267     71.686307
PG31  23146.481704  -8222.558991  10579.045241    153.376016
PG32  -5288.562732 -24245.048298  -9793.612009   -343.062305
PR01  -7217.530446 -23929.473743  -5129.639903 999999.999999
PR02 -13801.036691 -17279.318408  12734.662977 999999.999999
PR03 -24981.396527   -679.084494  -5362.778917 999999.999999
PR04  16325.130160  -7204.159169  18235.576572 999999.999999
PR05   7165.406386  23909.989924   5249.093164 999999.999999
PR06  13640.901648  17847.711967 -12124.831177 999999.999999
PR07  11998.563317  -1109.671655 -22490.288206 999999.999999
PR08   3497.298783 -16106.180801 -19459.678991 999999.999999
PR09  21398.155995   8363.787361 -11193.679075 999999.999999
PR10  24878.136552    692.316441   5347.797302 999999.999999
PR11  14261.996378  -7335.116682  19858.977536 999999.999999
PR12  -5609.029984 -11257.502892  22193.712371 999999.999999
PR13 -21352.501284  -7979.108589  11454.827758 999999.999999
PR15 -11787.645194   8083.105205 -21096.154995 999999.999999
PR16   5465.935233  11261.407302 -22240.487784 999999.999999
PR17 -17372.761480   9976.286091 -15841.012208 999999.999999
PR18 -15368.946648  20421.621152    650.969715 999999.999999
PR19  -4839.209629  18765.350232  16577.623093 999999.999999
PR20   9089.009857   5935.323037  23080.981880 999999.999999
PR21  17202.941579  -9891.118297  16078.581486 999999.999999
PR22  15393.622328 -20238.566068   -213.629059 999999.999999
PR23   4578.536906 -18831.746130 -16601.486527 999999.999999
PR24  -8707.762892  -6527.308143 -23097.316007 999999.999999
EOF
